NORAD_CAT_ID,OBJECT_NAME,OBJECT_TYPE,EPOCH,MEAN_MOTION,ECCENTRICITY,INCLINATION,RA_OF_ASC_NODE,ARG_OF_PERICENTER,MEAN_ANOMALY,BSTAR,MEAN_MOTION_DOT,MEAN_MOTION_DDOT,TLE_LINE0,TLE_LINE1,TLE_LINE2,SEMIMAJOR_AXIS,PERIOD,APOGEE,PERIGEE,DECAYED
55791.0,STARLINK-5807,PAYLOAD,2023-08-27 14:00:01,15.41932469,0.0003578,70.0,18.9801,275.3472,92.0013,-0.024271,-0.00948711,0.0,0 STARLINK-5807,1 55791U 23028BC  23239.58334491 -.00948711  00000-0 -24271-1 0  9997,2 55791  70.0000  18.9801 0003578 275.3472  92.0013 15.41932469  5932,6818.543,93.389,442.848,437.969,0.0
55791.0,STARLINK-5807,PAYLOAD,2023-08-27 22:00:00,15.41269206,0.0003559,69.9996,18.0817,280.5246,136.1778,-0.024143,-0.00925052,0.0,0 STARLINK-5807,1 55791U 23028BC  23239.91667824 -.00925052  00000-0 -24143-1 0  9994,2 55791  69.9996  18.0817 0003559 280.5246 136.1778 15.41269206 28448,6820.499,93.429,444.792,439.937,0.0
55791.0,STARLINK-5807,PAYLOAD,2023-08-28 22:00:00,15.39320755,0.0003354,69.9998,15.3925,279.7537,280.3076,-0.026221,-0.00940402,0.0,0 STARLINK-5807,1 55791U 23028BC  23240.91667824 -.00940402  00000-0 -26221-1 0  9991,2 55791  69.9998  15.3925 0003354 279.7537 280.3076 15.39320755 28599,6826.254,93.548,450.408,445.829,0.0
55791.0,STARLINK-5807,PAYLOAD,2023-08-29 22:00:00,15.37363059,0.0003526,70.0,12.7114,280.1439,56.2399,-0.027958,-0.0094051,0.0,0 STARLINK-5807,1 55791U 23028BC  23241.91667824 -.00940510  00000-0 -27958-1 0  9990,2 55791  70.0000  12.7114 0003526 280.1439  56.2399 15.37363059  5983,6832.048,93.667,456.322,451.504,0.0
55791.0,STARLINK-5807,PAYLOAD,2023-08-30 04:00:00,15.36828525,0.0003361,70.0005,12.0424,274.2833,5.0957,-0.026207,-0.00872053,0.0,0 STARLINK-5807,1 55791U 23028BC  23242.16667824 -.00872053  00000-0 -26207-1 0  9990,2 55791  70.0005  12.0424 0003361 274.2833   5.0957 15.36828525 28793,6833.632,93.699,457.793,453.2,0.0
55791.0,STARLINK-5807,PAYLOAD,2023-08-30 20:00:01,15.35545193,0.0003499,70.0006,10.2606,278.3454,86.8224,-0.028135,-0.00896223,0.0,0 STARLINK-5807,1 55791U 23028BC  23242.83334491 -.00896223  00000-0 -28135-1 0  9992,2 55791  70.0006  10.2606 0003499 278.3454  86.8224 15.35545193 28893,6837.439,93.778,461.696,456.911,0.0
55791.0,STARLINK-5807,PAYLOAD,2023-08-30 22:00:00,15.3540433,0.0003326,70.0005,10.0381,279.1776,186.4884,-0.029698,-0.00937952,0.0,0 STARLINK-5807,1 55791U 23028BC  23242.91667824 -.00937952  00000-0 -29698-1 0  9990,2 55791  70.0005  10.0381 0003326 279.1776 186.4884 15.35404330  6011,6837.857,93.786,461.996,457.448,0.0
55791.0,STARLINK-5807,PAYLOAD,2023-08-31 12:00:00,15.34272984,0.0003391,70.0012,8.4824,274.1185,173.7055,-0.031262,-0.00951075,0.0,0 STARLINK-5807,1 55791U 23028BC  23243.50001157 -.00951075  00000-0 -31262-1 0  9999,2 55791  70.0012   8.4824 0003391 274.1185 173.7055 15.34272984 28990,6841.218,93.856,465.403,460.763,0.0
55791.0,STARLINK-5807,PAYLOAD,2023-08-31 22:00:01,15.33450365,0.0003272,70.0007,7.3728,275.3626,312.607,-0.03184,-0.00944244,0.0,0 STARLINK-5807,1 55791U 23028BC  23243.91668981 -.00944244  00000-0 -31840-1 0  9990,2 55791  70.0007   7.3728 0003272 275.3626 312.6070 15.33450365  6072,6843.664,93.906,467.768,463.29,0.0
55791.0,STARLINK-5807,PAYLOAD,2023-09-01 04:00:00,15.3291294,0.0003272,70.0009,6.7076,271.707,255.6728,-0.029479,-0.00865965,0.0,0 STARLINK-5807,1 55791U 23028BC  23244.16667824 -.00865965  00000-0 -29479-1 0  9990,2 55791  70.0009   6.7076 0003272 271.7070 255.6728 15.32912940 29090,6845.264,93.939,469.368,464.889,0.0
55791.0,STARLINK-5807,PAYLOAD,2023-09-01 14:00:01,15.32131674,0.0003456,70.0012,5.6003,273.1688,32.3249,-0.032324,-0.00921564,0.0,0 STARLINK-5807,1 55791U 23028BC  23244.58334491 -.00921564  00000-0 -32324-1 0  9998,2 55791  70.0012   5.6003 0003456 273.1688  32.3249 15.32131674  5906,6847.59,93.987,471.822,467.089,0.0
55791.0,STARLINK-5807,PAYLOAD,2023-09-01 20:00:01,15.31633339,0.0003328,70.001,4.9365,275.8911,327.8903,-0.032031,-0.00900806,0.0,0 STARLINK-5807,1 55791U 23028BC  23244.83334491 -.00900806  00000-0 -32031-1 0  9997,2 55791  70.0010   4.9365 0003328 275.8911 327.8903 15.31633339 29205,6849.076,94.017,473.22,468.661,0.0
55791.0,STARLINK-5807,PAYLOAD,2023-09-01 22:00:00,15.31493372,0.0003429,70.0009,4.7153,275.4965,67.6094,-0.033865,-0.00944275,0.0,0 STARLINK-5807,1 55791U 23028BC  23244.91667824 -.00944275  00000-0 -33865-1 0  9999,2 55791  70.0009   4.7153 0003429 275.4965  67.6094 15.31493372  5950,6849.493,94.026,473.707,469.009,0.0
55791.0,STARLINK-5807,PAYLOAD,2023-09-02 14:00:01,15.3017448,0.0003461,70.0011,2.9483,276.0434,139.9565,-0.034364,-0.00921604,0.0,0 STARLINK-5807,1 55791U 23028BC  23245.58334491 -.00921604  00000-0 -34364-1 0  9990,2 55791  70.0011   2.9483 0003461 276.0434 139.9565 15.30174480 29310,6853.428,94.107,477.665,472.921,0.0
55791.0,STARLINK-5807,PAYLOAD,2023-09-02 22:00:00,15.29535088,0.0003362,70.0007,2.066,278.3645,172.9003,-0.035861,-0.00953058,0.0,0 STARLINK-5807,1 55791U 23028BC  23245.91667824 -.00953058  00000-0 -35861-1 0  9997,2 55791  70.0007   2.0660 0003362 278.3645 172.9003 15.29535088  6011,6855.338,94.146,479.508,474.898,0.0
55791.0,STARLINK-5807,PAYLOAD,2023-09-03 14:00:01,15.2820986,0.0003339,70.0007,0.3042,277.1282,242.3401,-0.036025,-0.00910271,0.0,0 STARLINK-5807,1 55791U 23028BC  23246.58334491 -.00910271  00000-0 -36025-1 0  9995,2 55791  70.0007   0.3042 0003339 277.1282 242.3401 15.28209860  5742,6859.301,94.228,483.456,478.875,0.0
55791.0,STARLINK-5807,PAYLOAD,2023-09-03 20:00:01,15.27726257,0.00034,70.0004,359.6442,280.4711,173.7579,-0.036503,-0.00908919,0.0,0 STARLINK-5807,1 55791U 23028BC  23246.83334491 -.00908919  00000-0 -36503-1 0  9990,2 55791  70.0004 359.6442 0003400 280.4711 173.7579 15.27726257 29502,6860.748,94.258,484.946,480.281,0.0
55791.0,STARLINK-5807,PAYLOAD,2023-09-04 12:00:00,15.2643455,0.0003338,70.0005,357.8874,276.0935,242.0252,-0.039219,-0.00948279,0.0,0 STARLINK-5807,1 55791U 23028BC  23247.50001157 -.00948279  00000-0 -39219-1 0  9995,2 55791  70.0005 357.8874 0003338 276.0935 242.0252 15.26434550 29601,6864.618,94.337,488.775,484.192,0.0
55791.0,STARLINK-5807,PAYLOAD,2023-09-04 14:00:01,15.26250506,0.0003346,70.0004,357.6679,276.393,339.5009,-0.038013,-0.00905233,0.0,0 STARLINK-5807,1 55791U 23028BC  23247.58334491 -.00905233  00000-0 -38013-1 0  9997,2 55791  70.0004 357.6679 0003346 276.3930 339.5009 15.26250506  5904,6865.17,94.349,489.332,484.738,0.0
55791.0,STARLINK-5807,PAYLOAD,2023-09-05 12:00:00,15.24473091,0.0003354,70.0003,355.2582,275.16,332.9317,-0.041237,-0.00940429,0.0,0 STARLINK-5807,1 55791U 23028BC  23248.50001157 -.00940429  00000-0 -41237-1 0  9998,2 55791  70.0003 355.2582 0003354 275.1600 332.9317 15.24473091 29763,6870.505,94.459,494.674,490.066,0.0
55791.0,STARLINK-5807,PAYLOAD,2023-09-05 14:00:01,15.2429553,0.0003442,70.0002,355.0395,277.8832,67.3942,-0.040441,-0.00919027,0.0,0 STARLINK-5807,1 55791U 23028BC  23248.58334491 -.00919027  00000-0 -40441-1 0  9992,2 55791  70.0002 355.0395 0003442 277.8832  67.3942 15.24295530  6012,6871.039,94.47,495.269,490.539,0.0
55791.0,STARLINK-5807,PAYLOAD,2023-09-06 14:00:01,15.22339578,0.0003405,70.0002,352.4187,280.2025,147.4183,-0.042947,-0.00920644,0.0,0 STARLINK-5807,1 55791U 23028BC  23249.58334491 -.00920644  00000-0 -42947-1 0  9993,2 55791  70.0002 352.4187 0003405 280.2025 147.4183 15.22339578 29924,6876.923,94.591,501.129,496.446,0.0
55791.0,STARLINK-5807,PAYLOAD,2023-09-06 22:00:00,15.21709338,0.0003356,69.9999,351.5467,281.0374,172.459,-0.045785,-0.00960199,0.0,0 STARLINK-5807,1 55791U 23028BC  23249.91667824 -.00960199  00000-0 -45785-1 0  9991,2 55791  69.9999 351.5467 0003356 281.0374 172.4590 15.21709338  6017,6878.821,94.63,502.995,498.378,0.0
55791.0,STARLINK-5807,PAYLOAD,2023-09-07 14:00:01,15.2037976,0.000329,70.0002,349.8058,280.7522,222.1732,-0.045251,-0.00916001,0.0,0 STARLINK-5807,1 55791U 23028BC  23250.58334491 -.00916001  00000-0 -45251-1 0  9998,2 55791  70.0002 349.8058 0003290 280.7522 222.1732 15.20379760 30074,6882.831,94.713,506.961,502.432,0.0
55791.0,STARLINK-5807,PAYLOAD,2023-09-07 22:00:00,15.19752753,0.0003239,70.0,348.9365,280.3157,246.1375,-0.048567,-0.00961599,0.0,0 STARLINK-5807,1 55791U 23028BC  23250.91667824 -.00961599  00000-0 -48567-1 0  9999,2 55791  70.0000 348.9365 0003239 280.3157 246.1375 15.19752753  6028,6884.724,94.752,508.819,504.359,0.0
55791.0,STARLINK-5807,PAYLOAD,2023-09-08 14:00:01,15.18419756,0.0003252,70.0004,347.2008,279.8808,291.3085,-0.047572,-0.00910044,0.0,0 STARLINK-5807,1 55791U 23028BC  23251.58334491 -.00910044  00000-0 -47572-1 0  9998,2 55791  70.0004 347.2008 0003252 279.8808 291.3085 15.18419756 30231,6888.753,94.835,512.858,508.378,0.0
55791.0,STARLINK-5807,PAYLOAD,2023-09-08 22:00:00,15.17795872,0.0003248,70.0002,346.3341,278.9271,313.4423,-0.051506,-0.00963378,0.0,0 STARLINK-5807,1 55791U 23028BC  23251.91667824 -.00963378  00000-0 -51506-1 0  9994,2 55791  70.0002 346.3341 0003248 278.9271 313.4423 15.17795872  5901,6890.641,94.874,514.744,510.267,0.0
55791.0,STARLINK-5807,PAYLOAD,2023-09-09 14:00:01,15.16461996,0.0003331,70.0006,344.6038,279.3423,353.0688,-0.050177,-0.00907504,0.0,0 STARLINK-5807,1 55791U 23028BC  23252.58334491 -.00907504  00000-0 -50177-1 0  9991,2 55791  70.0006 344.6038 0003331 279.3423 353.0688 15.16461996 30385,6894.681,94.958,518.842,514.249,0.0
55791.0,STARLINK-5807,PAYLOAD,2023-09-10 06:00:00,15.15165212,0.000333,70.0008,342.8768,273.2476,36.0555,-0.051821,-0.00903516,0.0,0 STARLINK-5807,1 55791U 23028BC  23253.25001157 -.00903516  00000-0 -51821-1 0  9992,2 55791  70.0008 342.8768 0003330 273.2476  36.0555 15.15165212 30480,6898.614,95.039,522.776,518.182,0.0
55791.0,STARLINK-5807,PAYLOAD,2023-09-10 14:00:01,15.1450177,0.0003346,70.0008,342.0146,277.2386,49.3543,-0.052608,-0.00900382,0.0,0 STARLINK-5807,1 55791U 23028BC  23253.58334491 -.00900382  00000-0 -52608-1 0  9990,2 55791  70.0008 342.0146 0003346 277.2386  49.3543 15.14501770  5964,6900.629,95.081,524.803,520.185,0.0
